NORAD_CAT_ID,OBJECT_NAME,OBJECT_TYPE,EPOCH,MEAN_MOTION,ECCENTRICITY,INCLINATION,RA_OF_ASC_NODE,ARG_OF_PERICENTER,MEAN_ANOMALY,BSTAR,MEAN_MOTION_DOT,MEAN_MOTION_DDOT,TLE_LINE0,TLE_LINE1,TLE_LINE2,SEMIMAJOR_AXIS,PERIOD,APOGEE,PERIGEE,DECAYED
52306.0,STARLINK-3747,PAYLOAD,2022-06-21 14:00:01,15.73190597,0.0003638,53.2148,73.4092,8.5602,150.7918,0.00049971,0.00070087,0.0,0 STARLINK-3747,1 52306U 22041AX  22172.58334491  .00070087  00000-0  49971-3 0  9991,2 52306  53.2148  73.4092 0003638   8.5602 150.7918 15.73190597  1309,6727.922,91.534,352.235,347.339,0.0
52306.0,STARLINK-3747,PAYLOAD,2022-06-21 22:00:00,15.73262986,0.0003754,53.2159,71.7596,11.8837,236.414,-0.00090309,-0.00125889,0.0,0 STARLINK-3747,1 52306U 22041AX  22172.91667824 -.00125889  00000-0 -90309-3 0  9991,2 52306  53.2159  71.7596 0003754  11.8837 236.4140 15.73262986 10869,6727.715999999999,91.53,352.106,347.055,0.0
52306.0,STARLINK-3747,PAYLOAD,2022-06-22 06:00:00,15.73188448,0.0003932,53.2152,70.1121,8.9385,328.3005,8.507e-06,5.69e-06,0.0,0 STARLINK-3747,1 52306U 22041AX  22173.25001157  .00000569  00000-0  85070-5 0  9996,2 52306  53.2152  70.1121 0003932   8.9385 328.3005 15.73188448 10919,6727.928000000001,91.534,352.439,347.148,0.0
52306.0,STARLINK-3747,PAYLOAD,2022-06-22 14:00:01,15.73168311,0.0003675,53.2155,68.4605,9.0266,57.1324,0.00053917,0.00075649,0.0,0 STARLINK-3747,1 52306U 22041AX  22173.58334491  .00075649  00000-0  53917-3 0  9996,2 52306  53.2155  68.4605 0003675   9.0266  57.1324 15.73168311  1304,6727.986,91.535,352.3230000000001,347.37800000000016,0.0
52306.0,STARLINK-3747,PAYLOAD,2022-06-22 22:00:00,15.73213987,0.0003829,53.2154,66.8125,7.8514,147.2297,-0.00052571,-0.00073838,0.0,0 STARLINK-3747,1 52306U 22041AX  22173.91667824 -.00073838  00000-0 -52571-3 0  9997,2 52306  53.2154  66.8125 0003829   7.8514 147.2297 15.73213987  1305,6727.855,91.532,352.296,347.144,0.0
52306.0,STARLINK-3747,PAYLOAD,2022-06-23 06:00:00,15.73213745,0.0003844,53.2147,65.1634,5.023,238.9894,-0.00013926,-0.00020142,0.0,0 STARLINK-3747,1 52306U 22041AX  22174.25001157 -.00020142  00000-0 -13926-3 0  9997,2 52306  53.2147  65.1634 0003844   5.0230 238.9894 15.73213745 11074,6727.856,91.532,352.307,347.135,0.0
52306.0,STARLINK-3747,PAYLOAD,2022-06-23 14:00:01,15.73213819,0.0003539,53.2151,63.5116,6.126,326.8601,6.6591e-05,8.740000000000001e-05,0.0,0 STARLINK-3747,1 52306U 22041AX  22174.58334491  .00008740  00000-0  66591-4 0  9998,2 52306  53.2151  63.5116 0003539   6.1260 326.8601 15.73213819 11123,6727.856,91.532,352.102,347.34,0.0
52306.0,STARLINK-3747,PAYLOAD,2022-06-23 22:00:00,15.73245077,0.000373,53.2155,61.8642,3.6369,58.2765,-0.00050094,-0.00070508,0.0,0 STARLINK-3747,1 52306U 22041AX  22174.91667824 -.00070508  00000-0 -50094-3 0  9997,2 52306  53.2155  61.8642 0003730   3.6369  58.2765 15.73245077  1304,6727.767,91.531,352.141,347.122,0.0
52306.0,STARLINK-3747,PAYLOAD,2022-06-24 06:00:02,15.73185933,0.0003829,53.2155,60.2147,2.0979,148.829,-7.0664e-05,-0.00010527,0.0,0 STARLINK-3747,1 52306U 22041AX  22175.25002315 -.00010527  00000-0 -70664-4 0  9994,2 52306  53.2155  60.2147 0003829   2.0979 148.8290 15.73185933 11232,6727.935,91.534,352.376,347.224,0.0
52306.0,STARLINK-3747,PAYLOAD,2022-06-24 14:00:01,15.73143769,0.0003637,53.2157,58.5634,4.5309,235.2533,0.00027194,0.00037633,0.0,0 STARLINK-3747,1 52306U 22041AX  22175.58334491  .00037633  00000-0  27194-3 0  9997,2 52306  53.2157  58.5634 0003637   4.5309 235.2533 15.73143769  1305,6728.055,91.536,352.367,347.474,0.0
52306.0,STARLINK-3747,PAYLOAD,2022-06-24 22:00:01,15.73164906,0.000384,53.2156,56.9158,7.0753,321.6384,9.4102e-05,0.00012587,0.0,0 STARLINK-3747,1 52306U 22041AX  22175.91668981  .00012587  00000-0  94102-4 0  9993,2 52306  53.2156  56.9158 0003840   7.0753 321.6384 15.73164906  1304,6727.995,91.535,352.444,347.277,0.0
52306.0,STARLINK-3747,PAYLOAD,2022-06-25 14:00:01,15.73194673,0.000357,53.2152,53.6153,7.5206,138.9454,0.00059753,0.00084083,0.0,0 STARLINK-3747,1 52306U 22041AX  22176.58334491  .00084083  00000-0  59753-3 0  9995,2 52306  53.2152  53.6153 0003570   7.5206 138.9454 15.73194673 11444,6727.91,91.533,352.177,347.37300000000016,0.0
52306.0,STARLINK-3747,PAYLOAD,2022-06-25 22:00:00,15.7328042,0.0003764,53.2154,51.9678,6.3343,229.0879,-0.00060139,-0.00084511,0.0,0 STARLINK-3747,1 52306U 22041AX  22176.91667824 -.00084511  00000-0 -60139-3 0  9999,2 52306  53.2154  51.9678 0003764   6.3343 229.0879 15.73280420  1306,6727.666,91.529,352.06300000000016,346.999,0.0
52306.0,STARLINK-3747,PAYLOAD,2022-06-26 06:00:00,15.73247648,0.0003827,53.2155,50.3179,2.8205,321.5869,-3.7947e-05,-5.96e-05,0.0,0 STARLINK-3747,1 52306U 22041AX  22177.25001157 -.00005960  00000-0 -37947-4 0  9991,2 52306  53.2155  50.3179 0003827   2.8205 321.5869 15.73247648 11543,6727.759,91.53,352.199,347.05,0.0
52306.0,STARLINK-3747,PAYLOAD,2022-06-26 14:00:01,15.73254801,0.000362,53.2158,48.6664,3.8064,49.6713,-0.00032191,-0.00045681,0.0,0 STARLINK-3747,1 52306U 22041AX  22177.58335648 -.00045681  00000-0 -32191-3 0  9991,2 52306  53.2158  48.6664 0003620   3.8064  49.6713 15.73254801  1308,6727.739000000001,91.53,352.039,347.168,0.0
52306.0,STARLINK-3747,PAYLOAD,2022-06-26 20:00:01,15.73204464,0.0003778,53.2157,47.4309,5.0527,25.0794,-0.0001223,-0.00017762,0.0,0 STARLINK-3747,1 52306U 22041AX  22177.83334491 -.00017762  00000-0 -12230-3 0  9995,2 52306  53.2157  47.4309 0003778   5.0527  25.0794 15.73204464 11647,6727.882,91.533,352.289,347.206,0.0
52306.0,STARLINK-3747,PAYLOAD,2022-06-26 22:00:00,15.73180919,0.0003881,53.2154,47.019,5.5081,136.8623,0.00023922,0.00033066,0.0,0 STARLINK-3747,1 52306U 22041AX  22177.91667824  .00033066  00000-0  23922-3 0  9996,2 52306  53.2154  47.0190 0003881   5.5081 136.8623 15.73180919  1305,6727.95,91.534,352.426,347.20300000000015,0.0
52306.0,STARLINK-3747,PAYLOAD,2022-06-27 06:00:00,15.73206308,0.0003446,53.2172,45.3626,0.0886,231.0418,-3.1655e-05,-5.066e-05,0.0,0 STARLINK-3747,1 52306U 22041AX  22178.25001157 -.00005066  00000-0 -31655-4 0  9999,2 52306  53.2172  45.3626 0003446   0.0886 231.0418 15.73206308 11706,6727.877,91.533,352.061,347.4240000000001,0.0
52306.0,STARLINK-3747,PAYLOAD,2022-06-27 14:00:01,15.73168641,0.0003582,53.2151,43.7179,4.3345,315.9021,0.0004161,0.00058117,0.0,0 STARLINK-3747,1 52306U 22041AX  22178.58334491  .00058117  00000-0  41610-3 0  9999,2 52306  53.2151  43.7179 0003582   4.3345 315.9021 15.73168641 11750,6727.985,91.535,352.26,347.44,0.0
52306.0,STARLINK-3747,PAYLOAD,2022-06-27 22:00:00,15.73227067,0.0003839,53.2152,42.0707,2.2295,46.9145,-0.00048881,-0.00068779,0.0,0 STARLINK-3747,1 52306U 22041AX  22178.91667824 -.00068779  00000-0 -48881-3 0  9999,2 52306  53.2152  42.0707 0003839   2.2295  46.9145 15.73227067  1302,6727.818,91.532,352.266,347.1,0.0
52306.0,STARLINK-3747,PAYLOAD,2022-06-28 06:00:00,15.73175248,0.0003855,53.2153,40.4204,0.9197,137.1425,-2.6233e-05,-4.302e-05,0.0,0 STARLINK-3747,1 52306U 22041AX  22179.25001157 -.00004302  00000-0 -26233-4 0  9998,2 52306  53.2153  40.4204 0003855   0.9197 137.1425 15.73175248 11860,6727.965999999999,91.535,352.4240000000001,347.237,0.0
52306.0,STARLINK-3747,PAYLOAD,2022-06-28 14:00:01,15.73189446,0.0003687,53.2155,38.7695,4.3262,222.6293,-0.0003153,-0.00044638,0.0,0 STARLINK-3747,1 52306U 22041AX  22179.58334491 -.00044638  00000-0 -31530-3 0  9995,2 52306  53.2155  38.7695 0003687   4.3262 222.6293 15.73189446  1306,6727.925,91.534,352.271,347.31,0.0
52306.0,STARLINK-3747,PAYLOAD,2022-06-28 22:00:00,15.73140787,0.0003997,53.2152,37.1221,7.1449,308.7084,0.00018279,0.00025051,0.0,0 STARLINK-3747,1 52306U 22041AX  22179.91667824  .00025051  00000-0  18279-3 0  9992,2 52306  53.2152  37.1221 0003997   7.1449 308.7084 15.73140787  1302,6728.064,91.537,352.61800000000005,347.24,0.0
52306.0,STARLINK-3747,PAYLOAD,2022-06-29 14:00:01,15.73191092,0.000369,53.215,33.8212,7.6339,125.9734,0.00044834,0.00062765,0.0,0 STARLINK-3747,1 52306U 22041AX  22180.58334491  .00062765  00000-0  44834-3 0  9997,2 52306  53.2150  33.8212 0003690   7.6339 125.9734 15.73191092 12078,6727.920999999999,91.534,352.26800000000014,347.30300000000005,0.0
52306.0,STARLINK-3747,PAYLOAD,2022-06-29 22:00:00,15.73219431,0.0004036,53.2153,32.1732,7.3562,215.1982,0.00025558,0.0003543999999999,0.0,0 STARLINK-3747,1 52306U 22041AX  22180.91667824  .00035440  00000-0  25558-3 0  9995,2 52306  53.2153  32.1732 0004036   7.3562 215.1982 15.73219431  1309,6727.84,91.532,352.42,346.98900000000015,0.0
52306.0,STARLINK-3747,PAYLOAD,2022-06-30 14:00:01,15.73206926,0.0003803,53.2154,28.8721,5.7999,34.7043,0.0002322,0.0003211,0.0,0 STARLINK-3747,1 52306U 22041AX  22181.58334491  .00032110  00000-0  23220-3 0  9995,2 52306  53.2154  28.8721 0003803   5.7999  34.7043 15.73206926  1305,6727.875,91.533,352.2990000000001,347.182,0.0
52306.0,STARLINK-3747,PAYLOAD,2022-06-30 22:00:00,15.73231382,0.0004107,53.2155,27.2239,4.5641,124.8924,-0.00053482,-0.00075158,0.0,0 STARLINK-3747,1 52306U 22041AX  22181.91667824 -.00075158  00000-0 -53482-3 0  9995,2 52306  53.2155  27.2239 0004107   4.5641 124.8924 15.73231382  1305,6727.806,91.531,352.434,346.908,0.0
52306.0,STARLINK-3747,PAYLOAD,2022-07-01 06:00:00,15.73202789,0.0003968,53.2147,25.5736,2.5976,215.8038,-9.5257e-05,-0.00013979,0.0,0 STARLINK-3747,1 52306U 22041AX  22182.25001157 -.00013979  00000-0 -95257-4 0  9994,2 52306  53.2147  25.5736 0003968   2.5976 215.8038 15.73202789 12333,6727.887,91.533,352.422,347.083,0.0
52306.0,STARLINK-3747,PAYLOAD,2022-07-01 14:00:01,15.73211001,0.00038,53.2151,23.9233,3.3972,303.9286,0.00028034,0.00038935,0.0,0 STARLINK-3747,1 52306U 22041AX  22182.58334491  .00038935  00000-0  28034-3 0  9995,2 52306  53.2151  23.9233 0003800   3.3972 303.9286 15.73211001  1308,6727.864000000001,91.533,352.285,347.172,0.0
